{
  "links" : {
    "next" : "https://api.nasa.gov/neo/rest/v1/feed?start_date=2012-04-16&end_date=2012-04-16&detailed=true&api_key=t0TVs3DtDT2H8Oy2Zy8m2eVrNsAVKAexjcZXUckd",
    "prev" : "https://api.nasa.gov/neo/rest/v1/feed?start_date=2012-04-14&end_date=2012-04-14&detailed=true&api_key=t0TVs3DtDT2H8Oy2Zy8m2eVrNsAVKAexjcZXUckd",
    "self" : "https://api.nasa.gov/neo/rest/v1/feed?start_date=2012-04-15&end_date=2012-04-15&detailed=true&api_key=t0TVs3DtDT2H8Oy2Zy8m2eVrNsAVKAexjcZXUckd"
  },
  "element_count" : 9,
  "near_earth_objects" : {
    "2012-04-15" : [ {
      "links" : {
        "self" : "https://api.nasa.gov/neo/rest/v1/neo/3610026?api_key=t0TVs3DtDT2H8Oy2Zy8m2eVrNsAVKAexjcZXUckd"
      },
      "neo_reference_id" : "3610026",
      "name" : "(2012 TB53)",
      "nasa_jpl_url" : "http://ssd.jpl.nasa.gov/sbdb.cgi?sstr=3610026",
      "absolute_magnitude_h" : 23.1,
      "estimated_diameter" : {
        "kilometers" : {
          "estimated_diameter_min" : 0.063760979,
          "estimated_diameter_max" : 0.1425738833
        },
        "meters" : {
          "estimated_diameter_min" : 63.7609789875,
          "estimated_diameter_max" : 142.5738833281
        },
        "miles" : {
          "estimated_diameter_min" : 0.0396192233,
          "estimated_diameter_max" : 0.0885912765
        },
        "feet" : {
          "estimated_diameter_min" : 209.1895703015,
          "estimated_diameter_max" : 467.7620993781
        }
      },
      "is_potentially_hazardous_asteroid" : false,
      "close_approach_data" : [ {
        "close_approach_date" : "2012-04-15",
        "epoch_date_close_approach" : 1334473200000,
        "relative_velocity" : {
          "kilometers_per_second" : "13.7230041778",
          "kilometers_per_hour" : "49402.8150399475",
          "miles_per_hour" : "30696.9880452385"
        },
        "miss_distance" : {
          "astronomical" : "0.363117762",
          "lunar" : "141.2528076172",
          "kilometers" : "54321644",
          "miles" : "33753904"
        },
        "orbiting_body" : "Earth"
      } ],
      "orbital_data" : {
        "orbit_id" : "10",
        "orbit_determination_date" : "2017-04-06 08:48:43",
        "orbit_uncertainty" : "8",
        "minimum_orbit_intersection" : ".165161",
        "jupiter_tisserand_invariant" : "5.090",
        "epoch_osculation" : "2456210.5",
        "eccentricity" : ".1600548117073204",
        "semi_major_axis" : "1.253228066565079",
        "inclination" : "14.5359275040673",
        "ascending_node_longitude" : "359.0456945257625",
        "orbital_period" : "512.440676266404",
        "perihelion_distance" : "1.052642884344676",
        "perihelion_argument" : "263.3433987631715",
        "aphelion_distance" : "1.453813248785482",
        "perihelion_time" : "2456073.458489287058",
        "mean_anomaly" : "96.27444920280142",
        "mean_motion" : ".7025203436677336",
        "equinox" : "J2000"
      }
    }, {
      "links" : {
        "self" : "https://api.nasa.gov/neo/rest/v1/neo/2349928?api_key=t0TVs3DtDT2H8Oy2Zy8m2eVrNsAVKAexjcZXUckd"
      },
      "neo_reference_id" : "2349928",
      "name" : "349928 (2009 WD106)",
      "nasa_jpl_url" : "http://ssd.jpl.nasa.gov/sbdb.cgi?sstr=2349928",
      "absolute_magnitude_h" : 18.6,
      "estimated_diameter" : {
        "kilometers" : {
          "estimated_diameter_min" : 0.5064714588,
          "estimated_diameter_max" : 1.1325046106
        },
        "meters" : {
          "estimated_diameter_min" : 506.4714588346,
          "estimated_diameter_max" : 1132.5046106177
        },
        "miles" : {
          "estimated_diameter_min" : 0.3147066768,
          "estimated_diameter_max" : 0.7037055224
        },
        "feet" : {
          "estimated_diameter_min" : 1661.651821003,
          "estimated_diameter_max" : 3715.566426699
        }
      },
      "is_potentially_hazardous_asteroid" : false,
      "close_approach_data" : [ {
        "close_approach_date" : "2012-04-15",
        "epoch_date_close_approach" : 1334473200000,
        "relative_velocity" : {
          "kilometers_per_second" : "25.2047564803",
          "kilometers_per_hour" : "90737.1233290667",
          "miles_per_hour" : "56380.5197707748"
        },
        "miss_distance" : {
          "astronomical" : "0.1927479865",
          "lunar" : "74.9789657593",
          "kilometers" : "28834688",
          "miles" : "17917044"
        },
        "orbiting_body" : "Earth"
      } ],
      "orbital_data" : {
        "orbit_id" : "25",
        "orbit_determination_date" : "2017-04-06 09:23:07",
        "orbit_uncertainty" : "1",
        "minimum_orbit_intersection" : ".1576",
        "jupiter_tisserand_invariant" : "3.446",
        "epoch_osculation" : "2458000.5",
        "eccentricity" : ".7762307710705694",
        "semi_major_axis" : "1.933543430812679",
        "inclination" : "10.97764331344819",
        "ascending_node_longitude" : "294.561604171039",
        "orbital_period" : "982.0403313925656",
        "perihelion_distance" : ".4326675226145191",
        "perihelion_argument" : "16.69031539866444",
        "aphelion_distance" : "3.434419339010839",
        "perihelion_time" : "2458042.035366263333",
        "mean_anomaly" : "344.7738108336177",
        "mean_motion" : ".3665837221669991",
        "equinox" : "J2000"
      }
    }, {
      "links" : {
        "self" : "https://api.nasa.gov/neo/rest/v1/neo/3486442?api_key=t0TVs3DtDT2H8Oy2Zy8m2eVrNsAVKAexjcZXUckd"
      },
      "neo_reference_id" : "3486442",
      "name" : "(2010 BK2)",
      "nasa_jpl_url" : "http://ssd.jpl.nasa.gov/sbdb.cgi?sstr=3486442",
      "absolute_magnitude_h" : 22.0,
      "estimated_diameter" : {
        "kilometers" : {
          "estimated_diameter_min" : 0.1058168859,
          "estimated_diameter_max" : 0.2366137501
        },
        "meters" : {
          "estimated_diameter_min" : 105.8168859331,
          "estimated_diameter_max" : 236.6137501138
        },
        "miles" : {
          "estimated_diameter_min" : 0.0657515442,
          "estimated_diameter_max" : 0.1470249225
        },
        "feet" : {
          "estimated_diameter_min" : 347.1682720448,
          "estimated_diameter_max" : 776.2918559233
        }
      },
      "is_potentially_hazardous_asteroid" : true,
      "close_approach_data" : [ {
        "close_approach_date" : "2012-04-15",
        "epoch_date_close_approach" : 1334473200000,
        "relative_velocity" : {
          "kilometers_per_second" : "27.7961563684",
          "kilometers_per_hour" : "100066.1629261115",
          "miles_per_hour" : "62177.2221803941"
        },
        "miss_distance" : {
          "astronomical" : "0.4602636802",
          "lunar" : "179.0425720215",
          "kilometers" : "68854464",
          "miles" : "42784180"
        },
        "orbiting_body" : "Earth"
      } ],
      "orbital_data" : {
        "orbit_id" : "20",
        "orbit_determination_date" : "2017-04-06 08:58:32",
        "orbit_uncertainty" : "0",
        "minimum_orbit_intersection" : ".0326204",
        "jupiter_tisserand_invariant" : "6.499",
        "epoch_osculation" : "2458000.5",
        "eccentricity" : ".447855138407079",
        "semi_major_axis" : ".9037128212690635",
        "inclination" : "6.045502360378742",
        "ascending_node_longitude" : "278.074228346833",
        "orbital_period" : "313.7936078873723",
        "perihelion_distance" : ".4989803906193552",
        "perihelion_argument" : "72.63232579457423",
        "aphelion_distance" : "1.308445251918772",
        "perihelion_time" : "2457972.766778626866",
        "mean_anomaly" : "31.81696326303706",
        "mean_motion" : "1.147250902985927",
        "equinox" : "J2000"
      }
    } ]
  }
}